OBJECT_NAME,OBJECT_ID,EPOCH,MEAN_MOTION,ECCENTRICITY,INCLINATION,RA_OF_ASC_NODE,ARG_OF_PERICENTER,MEAN_ANOMALY,EPHEMERIS_TYPE,CLASSIFICATION_TYPE,NORAD_CAT_ID,ELEMENT_SET_NO,REV_AT_EPOCH,BSTAR,MEAN_MOTION_DOT,MEAN_MOTION_DDOT
STARLINK-5177,2022-136AR,2026-06-09T11:41:20.180832,15.08993084,.0002592,53.1682,281.8858,76.5724,283.5557,0,U,54090,999,20084,-.20853E-2,-.33465E-3,0
STARLINK-5221,2022-136AS,2026-06-09T01:26:38.562720,15.08831352,.00013682,53.1681,283.4910,78.7725,281.3421,0,U,54091,999,20078,.17360169E-3,.2475E-4,0
STARLINK-5190,2022-136AT,2026-06-09T00:28:55.569504,15.81736848,.00021939,53.1721,81.2495,94.2191,265.9083,0,U,54092,999,20361,.46890023E-3,.96701E-3,0
STARLINK-5213,2022-136AU,2026-06-09T01:47:50.984160,15.08818801,.00010588,53.1678,283.5779,84.7453,275.3659,0,U,54093,999,20078,.28967025E-3,.4323E-4,0
STARLINK-5193,2022-136AW,2026-06-09T01:37:13.928448,15.08824320,.00010453,53.1687,283.5307,104.6249,255.4858,0,U,54095,999,20078,.18518237E-3,.2659E-4,0
STARLINK-5188,2022-136AX,2026-06-09T11:25:28.299936,15.08833788,.0001226,53.1674,281.8173,64.5553,295.5565,0,U,54096,999,20084,-.3438E-4,-.835E-5,0
STARLINK-5197,2022-136AY,2026-06-09T11:36:44.980416,15.08832893,.0001202,53.1649,256.9182,98.2332,261.8796,0,U,54097,999,20119,.70507E-4,.834E-5,0
STARLINK-5217,2022-136AZ,2026-06-09T01:33:28.057248,15.08814408,.00013515,53.1689,284.2108,99.3073,260.8072,0,U,54098,999,20077,-.34081557E-4,-.83E-5,0
STARLINK-5198,2022-136BA,2026-06-09T01:21:19.561824,15.08799702,.00010019,53.1685,283.4654,114.0109,246.0987,0,U,54099,999,20078,.51262494E-3,.7871E-4,0
STARLINK-5185,2022-136BB,2026-06-09T01:42:33.808032,15.08828936,.00016208,53.1704,283.5549,85.9266,274.1911,0,U,54100,999,20078,.99049466E-4,.1288E-4,0
STARLINK-5204,2022-136BC,2026-06-09T11:15:35.140608,15.08833350,.0001166,53.1638,266.8155,79.8662,280.2461,0,U,54101,999,20105,.54669E-5,-.201E-5,0
STARLINK-5179,2022-136BD,2026-06-09T11:57:17.898048,15.08842375,.0001239,53.1671,281.9424,86.2845,273.8288,0,U,54102,999,20084,-.11538E-3,-.2124E-4,0
STARLINK-5200,2022-136BE,2026-06-09T12:52:54.279840,15.08834102,.0001162,53.1672,261.5378,89.8216,270.2908,0,U,54103,999,20113,.72903E-4,.872E-5,0
STARLINK-5203,2022-136BF,2026-06-09T10:45:02.594016,15.08823563,.000161,53.1669,246.7079,61.4947,298.6207,0,U,54104,999,20133,-.87618E-4,-.1682E-4,0
COSMOS 2561,2022-137A,2026-06-09T11:42:00.489024,15.51506260,.0011476,96.9184,219.7774,61.1813,299.0591,0,U,54109,999,20515,.1984E-3,.1167E-3,0
ONEWEB-0490,2022-138A,2026-06-09T11:27:00.004896,13.19725170,.0001658,87.9171,306.5027,97.8833,262.2488,0,U,54113,999,17581,.27019E-3,.121E-5,0
ONEWEB-0492,2022-138B,2026-06-09T08:25:03.472032,13.19725585,.0001721,87.9163,306.5303,104.6217,255.5106,0,U,54114,999,17580,.34429E-3,.151E-5,0
ONEWEB-0495,2022-138C,2026-06-09T11:31:32.975328,13.19724592,.000116,87.9164,306.5066,96.4433,263.6832,0,U,54115,999,17580,.10742E-3,.56E-6,0
ONEWEB-0497,2022-138D,2026-06-09T08:11:23.598240,13.19724932,.0001762,87.9167,306.5259,98.7113,261.4219,0,U,54116,999,17577,.23234E-3,.106E-5,0
ONEWEB-0499,2022-138E,2026-06-09T09:36:42.099264,13.19726817,.00016,87.9163,306.5238,92.5058,267.6258,0,U,54117,999,17579,-.25891E-5,.12E-6,0
ONEWEB-0500,2022-138F,2026-06-09T09:40:05.509056,13.19724298,.0001882,87.9172,306.5168,99.7875,260.3470,0,U,54118,999,17580,.44326E-4,.31E-6,0
ONEWEB-0501,2022-138G,2026-06-09T10:23:18.003264,13.19723126,.0001392,87.9171,306.5106,95.9448,264.1844,0,U,54119,999,17578,.19847E-3,.92E-6,0
ONEWEB-0502,2022-138H,2026-06-09T08:13:39.146016,13.19724072,.0001633,87.9171,306.5174,91.2589,268.8731,0,U,54120,999,17579,.12744E-3,.64E-6,0
ONEWEB-0503,2022-138J,2026-06-09T11:36:05.903424,13.19724365,.0001966,87.9174,306.4950,90.2718,269.8640,0,U,54121,999,17580,.16252E-4,.19E-6,0
ONEWEB-0504,2022-138K,2026-06-09T09:28:43.984128,13.19724902,.0001652,87.9172,306.5177,90.8356,269.2966,0,U,54122,999,17580,-.98433E-5,.9E-7,0
ONEWEB-0505,2022-138L,2026-06-09T09:24:11.615040,13.19726398,.0001422,87.9172,306.5195,91.0849,269.0446,0,U,54123,999,17578,.18537E-3,.87E-6,0
ONEWEB-0506,2022-138M,2026-06-09T10:36:56.620800,13.19723076,.0001537,87.9172,306.5065,94.7573,265.3735,0,U,54124,999,17578,.2319E-3,.106E-5,0
ONEWEB-0507,2022-138N,2026-06-09T09:17:21.638400,13.19724886,.0001613,87.9163,306.5302,98.0306,262.1010,0,U,54125,999,17582,.22044E-3,.101E-5,0
ONEWEB-0508,2022-138P,2026-06-09T11:01:58.257120,13.19723240,.0001401,87.9162,306.5151,102.3447,257.7843,0,U,54126,999,17581,.30457E-5,.14E-6,0
ONEWEB-0509,2022-138Q,2026-06-09T10:25:32.883168,13.19719567,.0001681,87.9173,306.5092,96.8976,263.2348,0,U,54127,999,17578,.36998E-3,.161E-5,0
