STARLINK-5177           
1 54090U 22136AR  26160.48703913 -.00033465  00000+0 -20853-2 0  9994
2 54090  53.1682 281.8858 0002592  76.5724 283.5557 15.08993084200840
STARLINK-5221           
1 54091U 22136AS  26160.06016855  .00002475  00000+0  17360-3 0  9996
2 54091  53.1681 283.4910 0001368  78.7725 281.3421 15.08831352200780
STARLINK-5190           
1 54092U 22136AT  26160.02008761  .00096701  00000+0  46890-3 0  9995
2 54092  53.1721  81.2495 0002193  94.2191 265.9083 15.81736848203617
STARLINK-5213           
1 54093U 22136AU  26160.07489565  .00004323  00000+0  28967-3 0  9990
2 54093  53.1678 283.5779 0001058  84.7453 275.3659 15.08818801200783
STARLINK-5193           
1 54095U 22136AW  26160.06752232  .00002659  00000+0  18518-3 0  9996
2 54095  53.1687 283.5307 0001045 104.6249 255.4858 15.08824320200786
STARLINK-5188           
1 54096U 22136AX  26160.47602199 -.00000835  00000+0 -34380-4 0  9990
2 54096  53.1674 281.8173 0001226  64.5553 295.5565 15.08833788200843
STARLINK-5197           
1 54097U 22136AY  26160.48385394  .00000834  00000+0  70507-4 0  9995
2 54097  53.1649 256.9182 0001202  98.2332 261.8796 15.08832893201199
STARLINK-5217           
1 54098U 22136AZ  26160.06490807 -.00000830  00000+0 -34082-4 0  9992
2 54098  53.1689 284.2108 0001351  99.3073 260.8072 15.08814408200776
STARLINK-5198           
1 54099U 22136BA  26160.05647641  .00007871  00000+0  51262-3 0  9990
2 54099  53.1685 283.4654 0001001 114.0109 246.0987 15.08799702200788
STARLINK-5185           
1 54100U 22136BB  26160.07122463  .00001288  00000+0  99049-4 0  9997
2 54100  53.1704 283.5549 0001620  85.9266 274.1911 15.08828936200785
STARLINK-5204           
1 54101U 22136BC  26160.46915672 -.00000201  00000+0  54669-5 0  9998
2 54101  53.1638 266.8155 0001166  79.8662 280.2461 15.08833350201051
STARLINK-5179           
1 54102U 22136BD  26160.49812382 -.00002124  00000+0 -11538-3 0  9999
2 54102  53.1671 281.9424 0001239  86.2845 273.8288 15.08842375200840
STARLINK-5200           
1 54103U 22136BE  26160.53673935  .00000872  00000+0  72903-4 0  9994
2 54103  53.1672 261.5378 0001162  89.8216 270.2908 15.08834102201132
STARLINK-5203           
1 54104U 22136BF  26160.44794669 -.00001682  00000+0 -87618-4 0  9994
2 54104  53.1669 246.7079 0001610  61.4947 298.6207 15.08823563201334
COSMOS 2561             
1 54109U 22137A   26160.48750566  .00011670  00000+0  19840-3 0  9999
2 54109  96.9184 219.7774 0011476  61.1813 299.0591 15.51506260205153
ONEWEB-0490             
1 54113U 22138A   26160.47708339  .00000121  00000+0  27019-3 0  9991
2 54113  87.9171 306.5027 0001658  97.8833 262.2488 13.19725170175810
ONEWEB-0492             
1 54114U 22138B   26160.35073463  .00000151  00000+0  34429-3 0  9998
2 54114  87.9163 306.5303 0001721 104.6217 255.5106 13.19725585175804
ONEWEB-0495             
1 54115U 22138C   26160.48024277  .00000056  00000+0  10742-3 0  9998
2 54115  87.9164 306.5066 0001160  96.4433 263.6832 13.19724592175800
ONEWEB-0497             
1 54116U 22138D   26160.34124535  .00000106  00000+0  23234-3 0  9998
2 54116  87.9167 306.5259 0001762  98.7113 261.4219 13.19724932175775
ONEWEB-0499             
1 54117U 22138E   26160.40048726  .00000012  00000+0 -25891-5 0  9993
2 54117  87.9163 306.5238 0001600  92.5058 267.6258 13.19726817175797
ONEWEB-0500             
1 54118U 22138F   26160.40284154  .00000031  00000+0  44326-4 0  9994
2 54118  87.9172 306.5168 0001882  99.7875 260.3470 13.19724298175807
ONEWEB-0501             
1 54119U 22138G   26160.43284726  .00000092  00000+0  19847-3 0  9999
2 54119  87.9171 306.5106 0001392  95.9448 264.1844 13.19723126175782
ONEWEB-0502             
1 54120U 22138H   26160.34281419  .00000064  00000+0  12744-3 0  9995
2 54120  87.9171 306.5174 0001633  91.2589 268.8731 13.19724072175790
ONEWEB-0503             
1 54121U 22138J   26160.48340166  .00000019  00000+0  16252-4 0  9995
2 54121  87.9174 306.4950 0001966  90.2718 269.8640 13.19724365175804
ONEWEB-0504             
1 54122U 22138K   26160.39495352  .00000009  00000+0 -98433-5 0  9996
2 54122  87.9172 306.5177 0001652  90.8356 269.2966 13.19724902175803
ONEWEB-0505             
1 54123U 22138L   26160.39180110  .00000087  00000+0  18537-3 0  9990
2 54123  87.9172 306.5195 0001422  91.0849 269.0446 13.19726398175788
ONEWEB-0506             
1 54124U 22138M   26160.44232200  .00000106  00000+0  23190-3 0  9998
2 54124  87.9172 306.5065 0001537  94.7573 265.3735 13.19723076175786
ONEWEB-0507             
1 54125U 22138N   26160.38705600  .00000101  00000+0  22044-3 0  9993
2 54125  87.9163 306.5302 0001613  98.0306 262.1010 13.19724886175823
ONEWEB-0508             
1 54126U 22138P   26160.45970205  .00000014  00000+0  30457-5 0  9999
2 54126  87.9162 306.5151 0001401 102.3447 257.7843 13.19723240175811
ONEWEB-0509             
1 54127U 22138Q   26160.43440837  .00000161  00000+0  36998-3 0  9998
2 54127  87.9173 306.5092 0001681  96.8976 263.2348 13.19719567175787
